{
  "type": "FeatureCollection",
  "name": "sample_municipalities",
  "features": [
    {
      "type": "Feature",
      "geometry": {
        "type": "Point",
        "coordinates": [
          11.829,
          44.5114
        ]
      },
      "properties": {
        "name": "Conselice",
        "province": "Ravenna",
        "urban_class": "rural_agricultural",
        "flood_area_pct": 80,
        "damaged_buildings": 160,
        "displaced_people": 6000,
        "need_posts": 125,
        "response_posts": 15,
        "response_teams": 3,
        "note": "Persistent waterlogging in low-lying Fruit Valley basin; strong under-response signal."
      }
    },
    {
      "type": "Feature",
      "geometry": {
        "type": "Point",
        "coordinates": [
          11.8833,
          44.2899
        ]
      },
      "properties": {
        "name": "Faenza",
        "province": "Ravenna",
        "urban_class": "secondary_city",
        "flood_area_pct": 35,
        "damaged_buildings": 240,
        "displaced_people": 12000,
        "need_posts": 80,
        "response_posts": 60,
        "response_teams": 18,
        "note": "High impact, strong visible rescue and volunteer response."
      }
    },
    {
      "type": "Feature",
      "geometry": {
        "type": "Point",
        "coordinates": [
          11.9116,
          44.4214
        ]
      },
      "properties": {
        "name": "Lugo",
        "province": "Ravenna",
        "urban_class": "secondary_town",
        "flood_area_pct": 40,
        "damaged_buildings": 150,
        "displaced_people": 7500,
        "need_posts": 50,
        "response_posts": 30,
        "response_teams": 8,
        "note": "Initially isolated, later received aid."
      }
    },
    {
      "type": "Feature",
      "geometry": {
        "type": "Point",
        "coordinates": [
          12.2431,
          44.1391
        ]
      },
      "properties": {
        "name": "Cesena",
        "province": "Forli-Cesena",
        "urban_class": "secondary_city",
        "flood_area_pct": 25,
        "damaged_buildings": 180,
        "displaced_people": 9000,
        "need_posts": 40,
        "response_posts": 50,
        "response_teams": 15,
        "note": "Visible water rescue activity."
      }
    },
    {
      "type": "Feature",
      "geometry": {
        "type": "Point",
        "coordinates": [
          12.0407,
          44.2227
        ]
      },
      "properties": {
        "name": "Forli",
        "province": "Forli-Cesena",
        "urban_class": "secondary_city",
        "flood_area_pct": 20,
        "damaged_buildings": 160,
        "displaced_people": 8000,
        "need_posts": 30,
        "response_posts": 45,
        "response_teams": 13,
        "note": "Suburbs flooded; response presence was frequently observed."
      }
    },
    {
      "type": "Feature",
      "geometry": {
        "type": "Point",
        "coordinates": [
          12.2035,
          44.4184
        ]
      },
      "properties": {
        "name": "Ravenna",
        "province": "Ravenna",
        "urban_class": "city",
        "flood_area_pct": 18,
        "damaged_buildings": 140,
        "displaced_people": 27000,
        "need_posts": 20,
        "response_posts": 40,
        "response_teams": 16,
        "note": "Major coordination and evacuation focus."
      }
    },
    {
      "type": "Feature",
      "geometry": {
        "type": "Point",
        "coordinates": [
          11.3426,
          44.4949
        ]
      },
      "properties": {
        "name": "Bologna",
        "province": "Bologna",
        "urban_class": "regional_capital",
        "flood_area_pct": 5,
        "damaged_buildings": 30,
        "displaced_people": 800,
        "need_posts": 10,
        "response_posts": 25,
        "response_teams": 5,
        "note": "Low direct impact; regional mobilization and support hub."
      }
    },
    {
      "type": "Feature",
      "geometry": {
        "type": "Point",
        "coordinates": [
          12.5695,
          44.0678
        ]
      },
      "properties": {
        "name": "Rimini",
        "province": "Rimini",
        "urban_class": "coastal_city",
        "flood_area_pct": 10,
        "damaged_buildings": 50,
        "displaced_people": 1500,
        "need_posts": 15,
        "response_posts": 20,
        "response_teams": 5,
        "note": "Moderate coastal and canal flooding."
      }
    },
    {
      "type": "Feature",
      "geometry": {
        "type": "Point",
        "coordinates": [
          11.9385,
          44.3859
        ]
      },
      "properties": {
        "name": "Cotignola",
        "province": "Ravenna",
        "urban_class": "small_town",
        "flood_area_pct": 45,
        "damaged_buildings": 80,
        "displaced_people": 2200,
        "need_posts": 25,
        "response_posts": 8,
        "response_teams": 2,
        "note": "Small-town distress signals, lower response visibility."
      }
    },
    {
      "type": "Feature",
      "geometry": {
        "type": "Point",
        "coordinates": [
          11.8453,
          44.358
        ]
      },
      "properties": {
        "name": "Solarolo",
        "province": "Ravenna",
        "urban_class": "small_town",
        "flood_area_pct": 50,
        "damaged_buildings": 65,
        "displaced_people": 1800,
        "need_posts": 18,
        "response_posts": 7,
        "response_teams": 1,
        "note": "Local under-response signal in rural fringe."
      }
    },
    {
      "type": "Feature",
      "geometry": {
        "type": "Point",
        "coordinates": [
          11.793,
          44.159
        ]
      },
      "properties": {
        "name": "Modigliana",
        "province": "Forli-Cesena",
        "urban_class": "mountain_village",
        "flood_area_pct": 30,
        "damaged_buildings": 50,
        "displaced_people": 1200,
        "need_posts": 20,
        "response_posts": 5,
        "response_teams": 1,
        "note": "Landslide isolation and lower formal-response visibility."
      }
    },
    {
      "type": "Feature",
      "geometry": {
        "type": "Point",
        "coordinates": [
          11.744,
          44.076
        ]
      },
      "properties": {
        "name": "Tredozio",
        "province": "Forli-Cesena",
        "urban_class": "mountain_village",
        "flood_area_pct": 25,
        "damaged_buildings": 25,
        "displaced_people": 600,
        "need_posts": 15,
        "response_posts": 2,
        "response_teams": 1,
        "note": "Peripheral village; social signals suggest isolation."
      }
    }
  ]
}